{
    "links": {
        "self": "http://www.neowsapp.com/rest/v1/neo/3802591?api_key=iIulBulltgU6a56xZRHN4H3l9WmuAYTsLGpBGhQ2"
    },
    "id": "3802591",
    "neo_reference_id": "3802591",
    "name": "(2018 GL4)",
    "designation": "2018 GL4",
    "nasa_jpl_url": "http://ssd.jpl.nasa.gov/sbdb.cgi?sstr=3802591",
    "absolute_magnitude_h": 22.0,
    "estimated_diameter": {
        "kilometers": {
            "estimated_diameter_min": 0.1058168859,
            "estimated_diameter_max": 0.2366137501
        },
        "meters": {
            "estimated_diameter_min": 105.8168859331,
            "estimated_diameter_max": 236.6137501138
        },
        "miles": {
            "estimated_diameter_min": 0.0657515442,
            "estimated_diameter_max": 0.1470249225
        },
        "feet": {
            "estimated_diameter_min": 347.1682720448,
            "estimated_diameter_max": 776.2918559233
        }
    },
    "is_potentially_hazardous_asteroid": false,
    "close_approach_data": [
        {
            "close_approach_date": "2018-04-22",
            "close_approach_date_full": "2018-Apr-22 21:44",
            "epoch_date_close_approach": 1524433440000,
            "relative_velocity": {
                "kilometers_per_second": "21.7335620368",
                "kilometers_per_hour": "78240.8233326067",
                "miles_per_hour": "48615.8049201967"
            },
            "miss_distance": {
                "astronomical": "0.0809847047",
                "lunar": "31.5030501283",
                "kilometers": "12115139.325698989",
                "miles": "7527998.4990604882"
            },
            "orbiting_body": "Earth"
        }
    ],
    "orbital_data": {
        "orbit_id": "6",
        "orbit_determination_date": "2018-05-19 06:36:19",
        "first_observation_date": "2018-04-11",
        "last_observation_date": "2018-04-21",
        "data_arc_in_days": 10,
        "observations_used": 93,
        "orbit_uncertainty": "8",
        "minimum_orbit_intersection": ".0749896",
        "jupiter_tisserand_invariant": "3.676",
        "epoch_osculation": "2458224.5",
        "eccentricity": ".6880647063182596",
        "semi_major_axis": "1.84849608269106",
        "inclination": "5.330014711727291",
        "ascending_node_longitude": "91.31057526464946",
        "orbital_period": "917.9652238212414",
        "perihelion_distance": ".5766111684237827",
        "perihelion_argument": "213.9214336141512",
        "aphelion_distance": "3.120380996958338",
        "perihelion_time": "2458279.050827744187",
        "mean_anomaly": "338.6067080992912",
        "mean_motion": ".3921717192089448",
        "equinox": "J2000",
        "orbit_class": {
            "orbit_class_type": "APO",
            "orbit_class_description": "Near-Earth asteroid orbits which cross the Earth’s orbit similar to that of 1862 Apollo",
            "orbit_class_range": "a (semi-major axis) > 1.0 AU; q (perihelion) < 1.017 AU"
        }
    },
    "is_sentry_object": false
}